STARLINK-2494           
1 48487U 21040BM  26068.66164607  .00011650  00000+0  40475-3 0  9991
2 48487  53.1620 194.1526 0001412  74.5162 285.5994 15.30208187266462
KUIPER-00222            
1 67782U 26030U   26068.67636257  .00055223  00000+0  17317-2 0  9992
2 67782  51.8817 219.7147 0012800  40.1845 320.0084 15.32445377  5087
